ROBUSTA 1B              
1 42792U 17036AD  23108.62224212  .00067893  00000+0  12834-2 0  9998
2 42792  97.1522 149.8010 0003807 295.4470  64.6387 15.48177634323978

PLEIADES 1A             
1 38012U 11076F   23108.65740344  .00000730  00000+0  16684-3 0  9993
2 38012  98.2010 184.2717 0001519  98.7122 261.4266 14.58535601603566

STORK-1                 
1 51087U 22002DH  23108.83933329  .00035714  00000+0  14712-2 0  9997
2 51087  97.4507 176.8415 0012031  95.6766 356.3084 15.23945593 69711

PLEIADES 1B             
1 39019U 12068A   23108.89757520  .00000728  00000+0  16648-3 0  9990
2 39019  98.1961 184.5161 0001443  93.1954 266.9406 14.58552148552454

PLEIADES NEO 4          
1 49070U 21073E   23108.94144576 -.00000014  00000+0  48696-5 0  9990
2 49070  97.8931 184.2812 0000880  95.5991 264.5306 14.81673526 90300

PLEIADES NEO 3          
1 48268U 21034A   23105.86873228 -.00000052  00000+0  30020-7 0  9992
2 48268  97.8936 181.2554 0001083 100.9095 259.2233 14.81672779106133